STARLINK-36908
1 67945U 26037P   26092.83335647 -.01872965  00000+0 -56026-1 0  9996
2 67945  43.0003  54.2107 0001729 259.7988 148.8100 15.37235735  5917
